S/n,Organisation Name,Mailing Address,Latitude,Longitude,Phone Number,Fax Number,Email Address
1,"*SCAPE CO., LTD.",2 Orchard Link #04-01 *SCAPE Building Singapore 237978,1.3010294,103.8357316,65216565,65216566,enquiries@scape.sg
2,365 Cancer Prevention Society,1 Commonwealth Lane #03-10 ONE Commonwealth Singapore 149544,1.3045222,103.7968194,63373368,,admin@365cps.org.sg
3,Abilities Beyond Limitations And Expectations Limited,7A Lor 8 Toa Payoh #02-09 Agape Village Singapore 319264,1.3400854,103.8570262,68017460,,enquiries@able-sg.org
4,Action For AIDS (Singapore),9 Kelantan Lane #03-01 Singapore 208628,1.306281,103.8564623,62540212,62565903,info@afa.org.sg
5,ADULLAM LIFE COUNSELLING,151 Chin Swee Road #08-04 Manhattan House Singapore 169876,1.2873008,103.8406134,90295323,,admin@adullam.org.sg
6,Adventist Community Services,90 Jurong East Street 13 #03-04 Singapore 609648,1.3354788,103.737972,65659076,65624923,ericteo@adventist.org.sg
7,Adventist Home for the Elders,195 Kim Keat Avenue #01-294 Singapore 310195,1.3305218,103.8588934,62581267,62581267,contact@adventisthome.org.sg
8,Adventist Nursing and Rehabilitation Centre,6 Marsiling Drive #01-96 Singapore 730006,1.4419885,103.7763046,63688401,63688034,cassie.tan@anrc.org.sg
9,Agape Counselling And Training Centre,8 Geylang Lorong 11 Singapore 388700,1.3123913,103.8771816,68422922,68422322,amelialim@agapesingapore.com
10,AGORA@WESTCOASTPLAZA LTD,121D SENGKANG EAST WAY #16-75 RIVERVALE BANK Singapore 544121,1.3867005,103.9046241,98449536,,albyyip@singnet.com.sg
11,Aidha Ltd,748A NORTH BRIDGE ROAD Singapore 198716,1.3030724,103.8594369,63415287/97894041,,info@aidha.org
12,Ain Society,2 Eunos Crescent #01-2545 Singapore 400002,1.3209039,103.902844,68485166,68447243,query@ainsociety.org.sg
13,ALIFE Ltd,308 Shunfu Road #01-165 Singapore 570308,1.3515149,103.8379898,62588816,62584339,alifeltd@singnet.com.sg
14,Alive Community Network,291 New Bridge Road #02-10/11 The Oriental Plaza Singapore 088756,1.2818744,103.8420632,63721053,,admin@alivecommunity.net
15,All Saints Home,5 Poh Huat Road All Saints Home Singapore 546703,1.3652757,103.8842674,6282 6969,6286 8157,recruit@allsaintshome.org.sg
16,Alzheimer's Disease Association,20 BENDEMEER ROAD #01-02 BS BENDEMEER CENTRE Singapore 339914,1.3144299,103.8620717,62939971,62936631,adahq@alz.org.sg
17,American Women's Association of Singapore,15 Scotts Road #03-01 Thong Teck Building Singapore 228218,1.3078412,103.8327229,67344895,67336190,office@awasingapore.org
18,AMKFSC Community Services Ltd,445 ANG MO KIO AVENUE 10 #01-1647 Singapore 560445,1.36701,103.855623,63128100,63883989,contact@amkfsc.org.sg
19,Ang Mo Kio - Thye Hua Kwan Hospital Ltd,17 Ang Mo Kio Avenue 9 Singapore 569766,1.3843023,103.8405729,64506106,64541729,enquiry@amkh.org.sg
20,Aoxiang Counselling Service,480 Lorong 2 Toa Payoh #02-18 c/o Toa Payoh Methodist Church Singapore 319641,1.3339331,103.8464725,62515525,62515525,belinda_yuan@yahoo.com.sg
21,Apex Club Of Singapore (Bukit Timah),119 Bukit Merah View #01-85 Singapore 152119,1.2835678,103.8208789,62725500,62783668,apexbt@apex.org.sg
22,"Apex Club Of Singapore (City), The",119 Bukit Merah View #01-85 Singapore 152119,1.2835678,103.8208789,62725500,62783668,apexsingapore01@gmail.com
23,Apex Day Rehabilitation Centre For Elderly,119 Bukit Merah View #01-85 Singapore 152119,1.2835678,103.8208789,62734510,62760713,
24,Apex Harmony Lodge,10 Pasir Ris Walk Singapore 518240,1.370499,103.9642542,65852265,65852982,ahl@apexharmony.org.sg
25,APSN Education Services Ltd,900 New Upper Changi Road Katong School Singapore 467354,1.3256287,103.9429032,64796252,,admin@apsn.org.sg
26,APSN Ltd.,11 Jalan Ubi #02-12 Kembangan-Chai Chee Community Hub Singapore 409074,1.3171718,103.8999315,64796252,,admin@apsn.org.sg
27,Arc Children's Centre Co Limited,77 Lorong Limau #01-51 Singapore 320077,1.3250142,103.8546356,62524898,,enquiry@arcchildren.org
28,Art Therapists' Association (Singapore),10 Anson Road #27-15 International Plaza Singapore 079903,1.2756998,103.8458098,68586938,,support@atas.org.sg
29,Arts House Ltd,28 ALIWAL STREET #03-07 ALIWAL ARTS CENTRE Singapore 199918,1.3025906,103.8611415,64350228,64447311,ngsoonlee@artshouse.sg
30,ArtsWok Collaborative Limited,90 Goodman Road Blk B #03-07 Goodman Arts Centre Singapore 439053,1.3039732,103.8851812,97472924,,connect@artswok.org
31,ASCENDING HOPE COMMUNITY SERVICES LTD.,37 JALAN PEMIMPIN #07-02 MAPEX Singapore 577177,1.3489314,103.8408764,83397100,,deborah@ascendinghope.org
32,ASIA PHILANTHROPY CIRCLE LTD.,352 TANGLIN ROAD #01-07 TANGLIN INTERNATIONAL CENTRE Singapore 247671,1.2952703,103.8148516,64710107,,office@asiaphilanthropycircle.org
33,Asian Venture Philanthropy Network Limited,171 Tras Street #10-179 Union Building Singapore 079025,1.2746327,103.8439918,65361824,,info@avpn.asia
34,Asian Women's Welfare Association,9 Lorong Napiri Access Building Singapore 547531,1.3723548,103.8785571,65115200,64890775,awwahq@awwa.org.sg
35,Assemblies of God Community Services Society,247 Paya Lebar Road #01-01 Trinity @ Paya Lebar Singapore 409045,1.3311636,103.8890435,68414912,67471170,enquiries@agcss.org.sg
36,Assisi Hospice,832 Thomson Road Singapore 574627,1.3424588,103.8385633,68322650,62535312,assisi@assisihospice.org.sg
37,Association For Early Childhood Educators (Singapore),18 Hougang Ave 3 #01-159 Singapore 530018,1.363201,103.8918795,62814989,62814328,info@aeces.org
38,Association For Persons With Special Needs,900 New Upper Changi Road Singapore 467354,1.3253182,103.9429503,64796252,64796272,hq@apsn.org.sg
39,Association For Psychiatric Rehabilitation (Singapore),139 Potong Pasir Avenue 3 #01-132 Singapore 350139,1.3332643,103.8661493,,,admin@aprs.org.sg
40,Association Of Muslim Professionals,1 Pasir Ris Drive 4 #05-11 Singapore 519457,1.368309,103.959529,64163966,65838028,corporate@amp.org.sg
41,Association of Psychotherapists and Counsellors (Singapore),124 HOUGANG AVENUE 1 #01-1450 Singapore 530124,1.3529153,103.8867247,91188045,,secretariat@apacs.org.sg
42,Association Of Women For Action And Research,5 Dover Crescent #01-22 Singapore 130005,1.3040258,103.7827432,67797137,67770318,aware@aware.org.sg
43,Australian & New Zealand Association (Singapore),47A  Kampong Bahru Road Singapore 169361,1.2767395,103.836163,62237992,66205239,
44,Autism Association (Singapore),101 Bukit Batok West Avenue 3 #01-01 Eden School Singapore 659168,1.351511,103.742986,67746649,67746957,enquiry@autism-association.org.sg
45,Autism Resource Centre (Singapore),5 Ang Mo Kio Ave 10 Singapore 569739,1.359282,103.854654,63233258,63231974,arc@autism.org.sg
46,AWFUL GRACE LTD.,600 North Bridge Road #05-01 Parkview Square Singapore 188788,1.300164,103.8577305,63362828,,awed@awfulgrace.org
47,AWWA LTD.,9 Lorong Napiri Singapore 547531,1.3723548,103.8785571,65115200,64890775,contactus@awwa.org.sg
48,BABES PREGNANCY CRISIS SUPPORT LTD.,26 Jalan Klinik #1-42 Singapore 160026,1.288261,103.8283736,66648591,62724675,hello@babes.org.sg
49,Bartley Community Care Services,8 New Industrial Road #05-01 LHK3 Building Singapore 536200,1.3418575,103.8852895,68850432,63832491,info@bccs.org.sg
50,Beautiful Mind Charity,20 MAXWELL ROAD #09-17 MAXWELL HOUSE Singapore 069113,1.2792508,103.8447681,93960817,63993699,admin@bmcsg.org
51,BEAUTIFUL PEOPLE SG LTD.,1 LORONG 2 TOA PAYOH #07-00 BRADDELL HOUSE Singapore 319637,1.3402155,103.847321,63480480,,contact@beautifulpeople.org.sg
52,Bethel Community Services,114 Aljunied Ave 2 #03-75 Singapore 380114,1.321746,103.886822,67447422,67445859,ed@bethelcs.org.sg
53,Bethesda Care Services,300 Bedok North Ave 3 Singapore 469717,1.331242,103.934759,64451500,64430733,admin@bethesdacare.sg
54,Bethesda Community Assistance And Relationship Enrichment Centre,242 Hougang St 22 #01-93 Singapore 530242,1.3576625,103.8923028,63404161,63830625,admin@bcare.org.sg
55,Bethesda Community Services Society,300 Bedok North Ave 3 Singapore 469717,1.331242,103.934759,64488658,62428050,
56,Beyond Social Services,26 Jalan Klinik #01-42/52 Singapore 160026,1.2881937,103.8283166,63752940,62740633,mail@beyond.org.sg
57,"Bible-Presbyterian Welfare Services, Singapore",156 Serangoon Garden Way Singapore 556055,1.367146,103.8615629,62875466,62843567,daniel@elsiekitchen.com.sg
58,Binjaitree,15 LORONG 29 GEYLANG #08-01 PTH BUILDING Singapore 388069,1.3147598,103.8855925,63392811,63390659,achau@binjaitree.org
59,Bishan Home for the Intellectually Disabled,6 Bishan Street 13 Bishan House Singapore 579798,1.3476352,103.8550497,63533515,63536753,info@bishanhome.org.sg
60,Bizlink Centre Singapore Ltd,512 Chai Chee Lane #01-07/09 Mapletree Industrial Singapore 469028,1.3304401,103.9173898,64495652,64495694,info@bizlink.org.sg
61,Bless Community Services,242 Yio Chu Kang Road Singapore 545671,1.3680115,103.8764376,62889377,,enquiries@bless.org.sg
62,BLESSED GRACE SOCIAL SERVICES LIMITED,16 ARUMUGAM ROAD #04-02B LTC BUILDING D Singapore 409961,1.3253532,103.8915152,86613979,-,shirley.leong@blessedgrace.org
63,BLOSSOM SEEDS LIMITED,105 CANBERRA STREET #02-01 EASTBROOK @ CANBERRA Singapore 750105,1.4499034,103.8329686,98737537,,contact@blossomseeds.sg
64,Blossom World Society,9 Toh Yi Drive #01-321 Singapore 590009,1.3383084,103.7736613,64645116,,contactus@blossomworld.sg
65,Blue Cross Charitable Institution,10 BUANGKOK GREEN PELANGI VILLAGE Singapore 539753,1.3814087,103.8873833,64897642,64898114,bluecros@singnet.com.sg
66,Bo Tien Welfare Services Society,6 Fourth Chin Bee Road Singapore 619708,1.3310683,103.7187464,62626021,62620889,botiensg@singnet.com.sg
67,"Bone Marrow Donor Programme, The",8 Sinaran Drive #03-02 Novena Specialist Center Singapore 307470,1.3203779,103.8448451,69160370,69160371,admin@bmdp.org
68,BOP HUB LTD,541 ORCHARD ROAD #19-03 LIAT TOWER Singapore 238881,1.3051925,103.8305905,62351928,,
69,Boys' Brigade in Singapore,105 Ganges Avenue BB Campus Singapore 169695,1.291351,103.8315889,67370377,67371676,bbhq@bb.org.sg
70,BOYS' TOWN,624 Upper Bukit Timah Road Singapore 678212,1.3697375,103.7674096,66905420,67627846,info@boystown.org.sg
71,Brahm Centre Ltd,473 TAMPINES STREET 43 #01-94 NIL Singapore 520473,1.3594711,103.9531185,69082122,,info@brahmcentre.com
72,Brain Tumour Society (Singapore) Limited,10 RAEBURN PARK #02-08 NIL Singapore 088702,1.273428,103.8332317,87385669,,admin@braintumoursociety.org.sg
73,Breadline Group,303 Shunfu Road #03-57 Singapore 570303,1.3498991,103.8382496,62584686,,info@breadlinegroup.org
74,Breakthrough Missions Ltd,24 Yew Siang Road Singapore 117758,1.278331,103.792557,64797734,64732970,account@breakthroughmissions.org.sg
75,Breast Cancer Foundation,5 Stadium Walk #04-03/08 Kallang Leisure Park Singapore 397693,1.3022162,103.8765213,63526560,63525808,enquiries@bcf.org.sg
76,Breastfeeding Mothers' Support Group (Singapore),96 Waterloo Street #02-04 SCWO Centre Singapore 187967,1.2994509,103.8517657,63393558,,contact@breastfeeding.org.sg
77,Bright Hill Evergreen Home,100 Punggol Field Singapore 828811,1.3920721,103.9153507,64593492,64522507,admin1@bheh.org
78,Bright Vision Hospital,5 Lorong Napiri Bright Vision Hospital Singapore 547530,1.3720491,103.8780311,62485755,68813872,enquiries@bvh.org.sg
79,Brighton Connection,1 Ubi Crescent #03-03 Singapore 408563,1.325562,103.8938674,68484940,68484972,enquires@brightonconnection.org.sg
80,"British Association of Singapore, The",19 Tanglin Road #03-61 Tanglin Shopping Centre Singapore 247909,1.3063651,103.8266182,63398229,63391167,info@britishassociation.org.sg
81,Buddha Of Medicine Welfare Society,11 Lorong 25 Geylang Singapore 388293,1.3141437,103.882453,67419969,67419939,admin@bmws.org.sg
82,Buddhist Compassion Relief Tzu-Chi Foundation (Singapore),9 Elias Road Singapore 519937,1.3726246,103.9393244,65829958,65829952,info@tzuchi.org.sg
83,"Buddhist Union, The",28 Jalan Senyum Singapore 418152,1.3217904,103.9147134,64435959,64443280,enquiries@thebuddhistunion.org
84,Calvary Community Care,147 POTONG PASIR AVENUE 1 #02-83 Singapore 350147,1.3319134,103.868111,62811866,62811867,care@calvary.sg
85,CampusImpact,151 Yishun Street 11 #01-26 Singapore 760151,1.4308782,103.8341906,64821324,64827324,enquiries@campusimpact.org.sg
86,CANOSSA MISSION SINGAPORE,100 Jalan Merbok Canossian Mission Singapore 598454,1.3453359,103.7649879,64674290,,canprov@canossaspore.org.sg
87,Care Community Services Society,103 Lavender Street #01-02 CarePoint Singapore 338725,1.311459,103.86199,69507500,,ccss@ccsscares.sg
88,Care Corner Seniors Services Ltd,62B Lorong 4 Toa Payoh #02-121 Golden Lotus Singapore 312062,1.3359099,103.851286,62586601,,ccss.general@carecorner.org.sg
89,Care Corner Singapore Ltd,6 WOODLANDS SQUARE #03-01 WOODS SQUARE TWR 2 Singapore 737737,1.4347621,103.7857558,6250 6813,,ccs@carecorner.org.sg
90,Care For The Elderly Foundation (Singapore),122B JOO CHIAT ROAD Singapore 427411,1.3138086,103.8991587,67416772,63421870,enquiry@cef.org.sg
91,Caregivers Alliance Limited,491B River Valley Road #04-04 Valley Point Office Tower Singapore 248373,1.2929026,103.8266324,64604400,-,general@cal.org.sg
92,Caregivers' Association of the Mentally-ill (CAMI),84  Riverina Crescent Singapore 518313,1.3803069,103.9469324,67829371,,contact@cami.org.sg
93,Caregiving Welfare Association,3 Ghim Moh Road #01-294 Singapore 270003,1.3120051,103.7871005,64667957,64665927,contact@cwa.org.sg
94,Caring Fleet Services Limited,211 Hougang St 21 #01-309 (2nd level) Singapore 530211,1.3598611,103.8878231,62818118,62822182,enquiry@caringfleet.com
95,Caritas Humanitarian Aid & Relief Initiatives (Singapore) Ltd.,55 WATERLOO STREET #07-02 CATHOLIC CENTRE Singapore 187954,1.2983144,103.8514777,63374119,,hr@charis-singapore.org
96,Caritas Singapore Community Council Limited,55 Waterloo Street #08-01 Catholic Centre Singapore 187954,1.2983144,103.8514777,63383448,63377101,info@caritas-singapore.org
97,Casa Raudha Ltd,1 Pasir Ris Drive 4 #05-11 Singapore 519457,1.368309,103.959529,68981316,68981376,enquiry@casaraudha.org
98,Casa Raudha Women Home,96 Waterloo St Singapore 187967,1.2995837,103.8516718,68981316,68981376,enquiry@casaraudha.org
99,Catholic Aids Response Effort,9 Mandai Road Singapore 779387,1.4026503,103.8159049,63535440,62554885,administrator@care.org.sg
100,Catholic Family Life Limited,2 HIGHLAND ROAD #01-03 CATHOLIC ARCHDIOSESAN EDUCATION CENTRE Singapore 549102,1.3558585,103.8770525,64880278,62855311,cfl@familylife.sg
101,"Catholic Welfare Services, Singapore",55 Waterloo Street #06-01 Catholic Centre Singapore 187954,1.2983144,103.8514777,63377954,63361513,generalenquiries@catholicwelfare.org.sg
102,Centre For Fathering Limited,1 WOODLANDS ROAD #04-03 The Tennery Singapore 677899,1.3798647,103.7606506,67691238,67691232,cff@fathers.com.sg
103,Centre for Seniors,9 Bishan Place #10-02 Junction 8 Office Tower Singapore 579837,1.3506808,103.8487631,64785015,,admin@cfs.org.sg
104,Centre Of Activity and Recreation For The Elders (CARE),531 Upper Cross Street #04-40A Hong Lim Complex Singapore 050531,1.2846815,103.8457938,65331010,65353596,
105,Cerebral Palsy Alliance Singapore,65 Pasir Ris Drive 1 Cerebral Palsy Centre Singapore 519529,1.3755847,103.9397982,65855601,65855603,hqadmin@cpas.org.sg
106,CHANGE COMMUNITY SERVICES LIMITED,165 UPPER EAST COAST ROAD Singapore 455266,1.3145718,103.9322769,61002352,64440544,info@changecs.sg
107,Charis Centre,11 Woodlands Close #03-41 Woodlands 11 Singapore 737853,1.4343653,103.8024411,83238200,,joehsy82@chariscentre.org.sg
108,CHARTERED SECRETARIES INSTITUTE OF SINGAPORE,149 Rochor Road #04-05 Fu Lu Shou Complex Singapore 188425,1.3016228,103.8544321,63344302,63344669,
109,Chen Su Lan Methodist Children's Home,202 Serangoon Garden Way Singapore 556057,1.3688037,103.8619812,67139150,67139155,info@cslmch.org.sg
110,Chen Su Lan Trust,180 Paya Lebar Road #10-01 Yi Guang Factory Building Singapore 409032,1.3308901,103.8900219,65933535,,cath@cntiew.com.sg
111,Cheng Hong Welfare Service Society,12 Eunos Crescent #01-2767 Singapore 400012,1.3222795,103.9043743,67482948,68445969,sheena.lee@chenghongwelfare.org
112,Child At Street 11 Ltd,102 Ang Mo Kio Ave 3 #01-1429 Singapore 560102,1.3706163,103.8392427,64553681,64553682,child@street11.org.sg
113,Children-At-Risk Empowerment Association (CARE Singapore),428 Pasir Ris Drive 6 #01-21 Singapore 510428,1.3694101,103.9565028,65833481,65817739,care@care.sg
114,Children's Aid Society,503 Clementi Road Singapore 599488,1.330658,103.7769836,64665758,64620729,cashome@singnet.com.sg
115,Children's Cancer Foundation,535 KALLANG BAHRU #02-01 GB POINT Singapore 339351,1.3213045,103.870768,62293701,62293700,ccfadmin@ccf.org.sg
116,"Children's Charities Association Of Singapore, The",18 Holland Drive #01-01 Singapore 271018,1.3115706,103.7920521,67732561,67732596,admin@childrenscharities.org.sg
117,CHILDREN'S WISHING WELL,365 Clementi Ave 2 #01-503 Singapore 120365,1.3122881,103.7699671,67770041,,admin@wishingwell.org.sg
118,Chinese Counselling Society (Singapore),41 KALLANG PUDDING ROAD #06-06 GOLDEN WHEEL BUILDING Singapore 349316,1.3294546,103.878741,96669138,,kedyccy@singnet.com.sg
119,CHINESE DEVELOPMENT ASSISTANCE COUNCIL,65 Tanjong Katong Road CDAC Building Singapore 436957,1.313525,103.8946983,66035505,68414882,feedback@cdac.org.sg
120,Chinese Women's Association,28 Gilstead Road #03-02 Singapore 309072,1.3170383,103.8392653,62532912,65249986,info@cwa-sg.org
121,Chong Hua Tong Tou Teck Hwee,3 Tampines Avenue Singapore 529784,1.3670494,103.9279444,67878083,67878398,kokwai.ng@gmail.com
122,Christian Outreach To The Handicapped,414 Tampines Street 41 #01-301 Singapore 520414,1.3598054,103.946259,67873200,67876990,admin@coh.org.sg
123,City Harvest Community Services Association,12 Pine Close #01-85 Singapore 391012,1.3085807,103.8822768,68359916,68359915,info@chcsa.org.sg
124,Civilians Association (Singapore),"19B Hillview Avenue, #04-03 Hillview Park, Sinagapore 669555",1.364657,103.7654608,,,
125,Clarity Singapore Limited,854 Yishun Ring Road #01-3511 Singapore 760854,1.4163749,103.8374747,67577990,,ask@clarity-singapore.org
126,Club HEAL,244 Bukit Batok East Ave 5 #01-02 Singapore 650244,1.3491241,103.7570247,68993463,,info@clubheal.org.sg
127,Club Rainbow (Singapore),538 Upper Cross Street #05-263 Singapore 050538,1.285205,103.845761,63771789,62718189,contact@clubrainbow.org
128,Coalition Against Bullying for Children and Youth (CABCY),10 Anson Road #27-04 International Plaza Singapore 079903,1.2756998,103.8458098,62233122,62234118,jaslin@cabcy.org.sg
129,COMPASSION FUND LTD.,11 LENG KEE ROAD Singapore 159091,1.2903171,103.8136111,62650291,62650271,manager@compassionfund.sg
130,Concern & Care Society,228 Bukit Batok Central #01-45 Singapore 650228,1.348675,103.753633,65605455,65605456,ccs@concernandcare.org.sg
131,CONJUNCT CONSULTING (SINGAPORE) LIMITED,2 ORCHARD LINK #04-01 SCAPE Singapore 237978,1.3010294,103.8357316,90923638,,info@conjunctconsulting.org
132,Cornerstone Community Services,11 East Coast Road #01-08 The Odeon Katong Singapore 428722,1.3049989,103.9016889,63448063,,info@cornerstoneservices.org.sg
133,Council for Third Age,9 Bishan Place #10-01 Junction 8 Office Tower Singapore 579837,1.3506808,103.8487631,63580333,62587603,c3a@c3a.org.sg
134,Counselling and Care Centre,536 Upper Cross Street #05-241 Hong Lim Complex Singapore 050536,1.2856452,103.8442608,65366366,65366356,info@counsel.org.sg
135,CREDIT COUNSELLING SINGAPORE,51 Cuppage Road #07-06 Singapore 229469,1.3028594,103.8401706,62255227,,enquiry@ccs.org.sg
136,Crime Library (Singapore),108C Mcnair Road #02-220 Singapore 324108,1.3199055,103.8594434,62935250,62967434,editor@crimelibrary.com.sg
137,CROHN'S & COLITIS SOCIETY OF SINGAPORE,237 Arcadia Road #04-06 The Arcadia Block B Singapore 289844,1.3336706,103.8108861,97564066,,info@ibd.org.sg
138,Cycling Without Age Singapore Ltd.,60A ORCHARD ROAD #4M-01 The Atrium@Orchard Tower 1 Singapore 238890,1.2995949,103.8458175,93821060,,info@cyclingwithoutage.sg
139,DAS ACADEMY LTD.,73 Bukit Timah Road #05-01 Rex House Singapore 229832,1.30677,103.847844,63362555,66439643,info@dasacademy.edu.sg
140,Daughters Of Tomorrow Limited,84 GENTING LANE #06-01 AXXEL INNOVATION CENTRE Singapore 349584,1.32457,103.8773159,82331961,,fannie@daughtersoftomorrow.org
141,Deaf and Hard-of-Hearing Federation (Singapore),23 Telok Blangah Crescent #01-40 Enable Centre Singapore Singapore 090023,1.2755658,103.8206426,87199035,,admin@dhhfs.org.sg
142,Deaf Sports Association (Singapore),27 Woodlands Industrial Park E1 #01-06 Hiangkie Industrial Building Singapore 757718,1.4551651,103.7981315,97400250,,info@dsa.org.sg
143,Diabetes Singapore,528 Jurong West St 52 #01-353 Singapore 640528,1.3483286,103.7170188,65649818,65649861,
144,Disabled People's Association,1 Jurong West Central 2 #04-01 Jurong Point Shopping Centre Singapore 648886,1.3397443,103.7067297,67911134,67911284,info@dpa.org.sg
145,Domestic Employees Welfare Fund,1 MARINA BOULEVARD #10-01 NTUC Singapore 018989,1.2823043,103.8525645,1800 2255 233,,contact@cde.org.sg
146,Dover Park Hospice,10 Jalan Tan Tock Seng Singapore 308436,1.320539,103.8491279,65007272,62547650,info@doverpark.org.sg
147,Down Syndrome Association (Singapore),9 Bishan Place #09-01 Junction 8 Office Tower Singapore 579837,1.3505054,103.8486958,65009321,62550337,admin@downsyndrome-singapore.org
148,Dyslexia Association Of Singapore,1 Jurong West Central 2 #05-01 Jurong Point Singapore 648886,1.3399257,103.7062886,64445700,64447900,info@das.org.sg
149,Eagles Mediation & Counselling Centre Ltd,331 NORTH BRIDGE ROAD #22-01/06 ODEAN TOWERS Singapore 188720,1.2962604,103.8530399,6788 8220,,reachus@emcc.org.sg
150,EMCC,331 NORTH BRIDGE ROAD #22-01/06 ODEON TOWERS Singapore 188720,1.2962604,103.8530399,67888220,,reachus@emcc.org.sg
151,EMPOWER AGEING LIMITED,625 Aljunied Road #04-09A Aljunied Industrial Complex Singapore 389836,1.3252005,103.8789142,68419136,,contact@empower.org.sg
152,EN Community Services Society,2 Kallang Avenue #06-14 CT HUB Singapore 339407,1.3123049,103.8630306,67886625,,encom@ecss.org.sg
153,Engineering Good Ltd,"111 Somerset Road, #12-05 Tripleone Somerset Singapore 238164",1.3001685,103.8372952,651577769,67357444,contactus@engineeringgood.org
154,Epilepsy Care Group (Singapore),3779 JALAN BUKIT MERAH #02-03 BUKIT MERAH COMMUNITY HUB Singapore 159462,1.2844073,103.8157049,63580566,,ecgs93@singnet.com.sg
155,Epworth Community Services,106 Bukit Batok Central #01-217 Singapore 650106,1.3481875,103.7469673,65622211,65698038,christianteo@epworth.sg
156,EQUAL-ARK SINGAPORE LTD.,100 Jalan Mashhor Singapore 299177,1.3352059,103.8330834,69040422,,info@equal.org.sg
157,Equestrian Federation of Singapore (E.F.S),100 Jalan Mashhor Singapore 299177,1.3352059,103.8330834,97538739,,jennifer.tan.efs@gmail.com
158,"Eurasian Association, The",139 Ceylon Road Eurasian Community House Singapore 429744,1.3100807,103.8994086,64471578,64473189,secretariat@eurasians.org
159,EXTRAORDINARY PEOPLE LIMITED,7500A BEACH ROAD #01-313 THE PLAZA Singapore 199591,1.299206,103.8604874,62865088,,weexiaoling@extraordinarypeople.sg
160,FaithActs,50 Commonwealth Drive #01-506 Singapore 142050,1.3011635,103.797097,63397611,,info@faithacts.org.sg
161,Family Life Society,2 Highland Road #LG-01 CAEC Building Singapore 549102,1.3558585,103.8770525,64880278,62855311,fls@familylife.sg
162,"Federation Of Youth Clubs, Singapore",5001 Beach Road #08-62 Golden Mile Complex Singapore 199588,1.3027902,103.8653797,96834905,,bernard41@live.com
163,Fei Yue Community Services,604 Choa Chu Kang St 62 #01-53 Singapore 680604,1.3981521,103.7448918,65631106,64162182,admin@fycs.org
164,Fei Yue Family Service Centre,185 Bukit Batok West Avenue 6 #01-187 Singapore 650185,1.347051,103.7449625,64162162,64162182,admin@fycs.org
165,Filos Community Services Ltd,38 Chai Chee Avenue #01-177 Singapore 461038,1.325945,103.926027,62425978,62426039,info@filos.sg
166,Focus on The Family Singapore Limited,9 Bishan Place #08-03 Junction 8 Office Tower Singapore 579837,1.349798,103.8495102,63361444,64910707,focus@family.org.sg
167,Foo Hai Buddhist Cultural and Welfare Association,87 Geylang East Ave 2 Foo Hai Ch'an Monastery Singapore 389753,1.3179102,103.8883998,67486676,67492343,sujenny@foohai.org
168,Food from the Heart,130 Joo Seng Road #03-01 (Formerly Olivine Building) Singapore 368357,1.3375176,103.8829543,62804483,62804498,info@foodheart.org
169,Foreign Domestic Worker Association for Social Support and Training (FAST),3 CHIN CHENG AVENUE Singapore 429401,1.3172951,103.9067373,65091535,65091536,contact@fast.org.sg
170,Foundation Of Rotary Clubs (Singapore) Ltd,111 NORTH BRIDGE ROAD #06-33 PENINSULA PLAZA Singapore 179098,1.2923407,103.8508826,6256 1983,,enquiry@rotaryfsc.org
171,Franciscan Missionaries Of Mary,49D Holland Road Maris Stella Convent Singapore 258852,1.3080638,103.8078121,64742422,64725895,fmm.ecpl@catholic.org.sg
172,Friends of the Disabled Society,75 Whampoa Drive #01-374 Whampoa Court Singapore 320075,1.3244305,103.8582094,62511203,62511053,contact@fds.org.sg
173,Friends-In-Deed Counselling Society,4 Greenwood Place Singapore 289129,1.3330368,103.805729,66181231,,fidcounselling@gmail.com
174,FU HUI BUDDHIST CULTURAL CENTRE,105 Punggol Road Fu Hui Singapore 546636,1.3800984,103.8962225,63877227,63877887,kuan.yan@sbws.org.sg
175,GEM NEW START CENTRE LIMITED,2 Springleaf View Singapore 787908,1.3973915,103.8200824,62663302,62660021,admin@gemnsc.com
176,Gerontological Society,89 Short Street #08-08 Golden Wall Centre Singapore 188216,1.3039302,103.8512903,63344445,63387153,shirley@gs.org.sg
177,Geylang East Home For The Aged,97 Aljunied Crescent #01-439 Singapore 380097,1.3212574,103.8856755,67457880,67417948,limyin@geha.org.sg
178,Girl Guides Singapore,9 Bishan St 14 Guide House Singapore 579785,1.353511,103.8506783,62599391,62595452,hr@girlguides.org.sg
179,"Girls' Brigade, Singapore, The",795 Upper Serangoon Road Singapore 534667,1.3558632,103.8801211,62886284,62886735,gbhq@gb.org.sg
180,Global Compact Network Singapore,160 Robinson Road #06-01 SBF Center Singapore 068914,1.2781678,103.8478429,63869330,,info@unglobalcompact.sg
181,GLOBAL INSTITUTE OF SOCIAL WORK LIMITED,5B MUSWELL HILL MOSELLA Singapore 358431,1.3444684,103.8621483,62481605,,chair@thegisw.org
182,Glory Centre Community Services Association,540 Hougang Ave 8 #01-1231 Singapore 530540,1.3764693,103.8901578,63863039,63860213,glorycentre.csa@gmail.com
183,Golden Years Fellowship,831 Hougang Central #01-502 Singapore 530831,1.3714884,103.8900672,63862273,64877468,
184,Good News Community Services,1 Francis Thomas Drive #02-17 Diocesan Centre Building Singapore 359340,1.329609,103.865741,62897611,62890312,goodnews@goodnews.org.sg
185,Grace Lodge,105 Punggol Road Singapore 546636,1.3797458,103.8966595,64898161,63877887,sbws@sbws.org.sg
186,GUIDE DOGS SINGAPORE LTD.,20 SIN MING LANE #02-53 MIDVIEW CITY Singapore 573968,1.3590081,103.8339108,63397900,,admin@guidedogs.org.sg
187,Habitat For Humanity Singapore Ltd,56 Lorong 23 Geylang #05-00 Century Technology Building Singapore 388381,1.3158699,103.8814532,67447326,68445383,info@habitat.org.sg
188,Haemophilia Society Of Singapore,704 Bedok Reservoir Road #01-3622 Singapore 470704,1.3365333,103.9203354,81635141,64490523,Haemophilia.sg@gmail.com
189,Halogen Foundation (Singapore),336 SMITH STREET #07-303 NEW BRIDGE CENTRE Singapore 050336,1.2829051,103.8427374,65096700,65096770,enquiry@halogen.sg
190,Handicaps Welfare Association,16 Whampoa Drive Singapore 327725,1.321931,103.8535764,62543006,62537375,hwa@hwa.org.sg
191,HCA Hospice Care,"705 Serangoon Road #03-01 Block A, Kwong Wai Shiu Hospital Singapore 328127",1.317285,103.8593269,62512561,62911076,contactus@hcahospicecare.org.sg
192,HCSA Community Services,1 Lorong 23 Geylang Singapore 388352,1.3137492,103.8806891,63260477,63260479,enquiry@hcsa.org.sg
193,Healthserve Ltd,1 Lorong 23 Geylang #01-07 Singapore 388352,1.3137492,103.8806891,67439774,67436174,info@healthserve.org.sg
194,Healthy Aging Association (Singapore),60 Paya Lebar Road #04-22 Paya Lebar Square Singapore 409051,1.3191725,103.8925563,63860616,62561180,liza_lim@haasg.com
195,Heartware Network,568 GANGES AVENUE #02-100 Singapore 160568,1.2900397,103.8309231,65094414,65094044,admin@heartware-network.org
196,HEB - ASHRAM HALFWAY HOUSE,30 Durban Road Singapore 759642,1.4532746,103.8297548,67539730,67533727,enquiries@hebashram.org.sg
197,HELP Family Service Centre,570 Ang Mo Kio Avenue 3 #01-3317 Singapore 560570,1.3698332,103.8558859,64575188,64575343,seow_beng@yahoo.com
198,"Helping Hand, The",819 Upper Serangoon Road Singapore 534678,1.3578533,103.8816264,62832204,62833748,richardkhalil@thehelphand.org
199,Home Nursing Foundation,93 Toa Payoh Central #07-01 Singapore 319194,1.334896,103.8504372,68545555,62555774,enquiry@hnf.org.sg
200,Hope Centre (Singapore),806 KING GEORGES AVENUE #03-222 NIL Singapore 200806,1.308471,103.861059,69095244,,office@hopecentre.org.sg
201,Hope Community Services Centre,623 Toa Payoh Lorong 4 Singapore 319518,1.3331516,103.8534189,63539265,63580262,enquiry@hopecsc.org
202,HOPE Worldwide (Singapore),1 Edgefield Walk Singapore 828850,1.400986,103.9096223,63129671,63438463,enquiries@hopewwsea.org
203,HUG COMMUNITY SERVICES LIMITED,200 TOA PAYOH NORTH #01-1033 TOA PAYOH SPRING Singapore 310200,1.3420697,103.8491886,62532004,,grace.yeo@hug.org.sg
204,Humanitarian Organization for Migration Economics,304 Orchard Road #06-22 Lucky Plaza Singapore 238863,1.3045795,103.8340621,63338384,63361505,contact@home.org.sg
205,I Love Children,323B Sengkang East Way #01-555 Singapore 542323,1.3920612,103.8927856,63859668,63859667,enquiry@ilovechildren.org
206,IC@RE HUB LTD.,461 Crawford Lane #17-75 Singapore 190461,1.3048317,103.8608858,62502393,,gracewyw@icarehub.org.sg
207,IC2 Prephouse Limited,1 Jurong West Central 2 #04-02 Jurong Point Shopping Centre Singapore 648886,1.3397443,103.7067297,67901802,67901806,admin@ic2.com.sg
208,IMAGE MISSION LTD.,6 UBI ROAD 1 #04-11 WINTECH CENTRE Singapore 408726,1.3264365,103.8935834,67476510,,admin@imagemission.org
209,Industrial and Services Co-operative Society Limited,237 ALEXANDRA ROAD #04-19 THE ALEXCIER Singapore 159929,1.2913077,103.8138103,67437885,63382042,admin@iscos.org.sg
210,Infant Jesus Homes And Children's Centres,503 Ang Mo Kio Street 13 Singapore 569406,1.3748612,103.8338533,64594801,,ijvillage@ijhcc.org
211,Inmates' Families Support Fund,407 Upper Changi Road North Singapore Prison Service HQ Singapore 507658,1.369035,103.981058,65469391,65462459,tan_jun_siang@pris.gov.sg
213,Inner Wheel Club Of Singapore East,101 Ang Mo Kio Ave 3 #02-1409 Singapore 560101,1.3702489,103.8394238,,,
214,Inner Wheel Club Of Singapore West,2 Clifton Vale Singapore 359662,1.3457991,103.863678,98568279,,
215,"International Y's Men's Club of Singapore (Alpha Chapter), The",1 Orchard Road c/o YMCA Of Singapore Singapore 238824,1.2976866,103.8479628,63366000,63368003,
216,"Jewish Welfare Board, Singapore, The",24 Waterloo Street Jacob Ballas Centre Singapore 187950,1.2980842,103.8506057,63372189,63362127,julia.han@jwb.org.sg
217,Jia Ying Community Services Society,1 & 3 Valley Road Glad Tidings Church Singapore 534449,1.3620542,103.8876207,62815025,62887456,enquiries@jiaying.org
218,Joyful Charity,336 Smith Street #05-303 Singapore 050336,1.2828136,103.8426668,96376541,,joyfulcharity@yahoo.com.sg
219,Ju Eng Home for Senior Citizens,205 Jalan Kayu Singapore 799436,1.3945593,103.8724447,64846890,64846892,juenghome@jeh.org.sg
220,Junior Chamber Of Singapore,112 Middle Road #04-01 Midland House Singapore 188970,1.2990011,103.8536822,63374307,63396143,info@jcisingapore.cc
221,"The Kamala Club, Singapore",Tanglin P.O. Box 200 Singapore 912407,1.306932,103.8188845,63459014,63459014,
222,KAMPONG KAPOR COMMUNITY SERVICES,2 Kitchener Road #03-89 Singapore 200002,1.3079089,103.8591716,62997662,62942116,admin@kkcs.org.sg
223,Kampung Senang Charity and Education Foundation,106 Aljunied Crescent #01-205 Singapore 380106,1.319083,103.88276,6749 8509,6844 5815,email@kampungsenang.org
224,Kang Ming Free Clinic,122 Teck Whye Lane #01-836 Singapore 680122,1.3786715,103.7494368,67607405,67642353,
225,Kheng Chiu Loke Tin Kee Home,70 Tampines Avenue 4 Kheng Chiu Happy Lodge Singapore 529681,1.3563464,103.9466896,67897889,67897811,khengchiuhappylodge@gmail.com
226,Kidney Dialysis Foundation Limited,333 Kreta Ayer Road #03-33 Singapore 080333,1.2805458,103.8425682,65592630,62250080,enquiries@kdf.org.sg
227,Kwan-In Welfare Society,34 Jalan Eunos Singapore 419496,1.3202838,103.9054497,67434228,67465048,admin@kwaninwelfare.org.sg
228,Kwong Wai Shiu Hospital,705 Serangoon Road Kwong Wai Shiu Hospital Singapore 328127,1.317285,103.8593269,64221200,62992406,community_services@kwsh.org.sg
229,Lakeside Family Services,516 Jurong West St 52 #01-73 Singapore 640516,1.345444,103.7201709,65671908,65656435,lfsjw@lakeside.org.sg
230,LAW SOCIETY PRO BONO SERVICES,1 HAVELOCK SQUARE #B1-18 State Courts Singapore 059724,1.2863639,103.8432753,65360650,,hr@lawsocprobono.org
231,Lawn Bowls Association for the Disabled (Singapore),3 Stadium Drive #01-34 c/o SDSC Singapore 397630,1.3041354,103.8742168,91597804,,hello@parabowlsingapore.org
232,Leap Foundation Ltd,170 Upper Bukit Timah Road #13-04 Bukit Timah Shopping Center Singapore 588179,1.3433626,103.7759097,64624222,64624111,ian@leapintl.com
233,Lee Foundation,65 Chulia Street #44-01 OCBC Centre Singapore 049513,1.285453,103.8491635,65354055,65337341,
234,Lejia Society,79 Robinson Road #23-05 CPF Building Singapore 068897,1.2774466,103.8480508,64213501,62247909,lcs.tlp@tanleepartners.com.sg
235,Lembaga Biasiswa Kenangan Maulud (Prophet Muhammad 's Birthday Memorial Scholarship Fund Board),448 Changi Road #04-01 Wisma Indah Singapore 419975,1.318727,103.912188,64474770,64474469,enquiries@lbkm.org.sg
236,Leukemia and Lymphoma Foundation,10 Sinaran Drive #10-20 Square 2 Novena Medical Centre Singapore 307506,1.32079,103.844202,63972394,63976629,service@llf.org.sg
237,Life Community Services Society,5 Stadium Walk #04-04 Kallang Leisure Park Singapore 397693,1.3022222,103.8763889,63873700,63873768,lcss@life-community.org
238,Light and Love Charity,21 Bukit Batok Crescent #13-75 Wcega Tower Singapore 658065,1.337038,103.7599012,62916724,62916724,llc-sg@lightandlovehome.org
239,Limitless (Ltd.),"2 Orchard Link #04-01 SCAPE, Hubquarters Singapore 237978",1.3010294,103.8357316,92303315,,hello@limitless.sg
240,Ling Kwang Home for Senior Citizens,156 Serangoon Garden Way Singapore 556055,1.367146,103.8615629,62875466,62843567,general@lkhsc.org.sg
241,"Lioness Club Of Singapore, The",153 Chun Tin Road Singapore 599704,1.3446906,103.7712916,96728326,,secretariat@lionsclubs.org.sg
242,Lions Befrienders Service Association (Singapore),130 Bukit Merah View #01-358 Singapore 150130,1.2848284,103.8244801,63758600,62731500,contact@lb.org.sg
243,Lions Club Of Singapore Jurong,243 Simei Street 5 #09-12 Singapore 520243,1.3438144,103.9551203,,,
244,Lions Club Of Singapore North,10 Anson Road #13-02 International Plaza Singapore 079903,1.2756998,103.8458098,62210991,62214173,
245,Lions Club Of Singapore Raffles City,2 Kallang Avenue #09-28 CT Hub Singapore 339407,1.3123049,103.8630306,96279602,,
246,Lions Club Of Singapore Serangoon Gardens,32 Kovan Road #04-04 Kovan Apt Singapore 548102,1.357135,103.8796457,,,
247,Lions Club Of Singapore Tanah Merah,712 Tampines Street 71 #08-150 Singapore 520712,1.3590539,103.9371036,,,
248,Lions Club Of Singapore Tanglin,111 North Bridge Road #07-27 Peninsula Plaza Singapore 179098,1.2923407,103.8508826,,,
249,Lions Community Service Foundation (Singapore),465 North Bridge Road #02-5051 Singapore 191465,1.305253,103.8630664,62912736,62441682,enquiries@lcsf.org.sg
250,Lions Home For The Elders,9 Bishan Street 13 Singapore 579804,1.3494025,103.8535998,62529900,63535725,lhe.pr@lionshome.org.sg
251,Lotus Light Charity Society (Singapore),403 Ang Mo Kio Avenue 10 #01-637 Singapore 560403,1.3613694,103.8545514,64513318,64514898,admin@llcs-sg.org
252,"LOVE, NILS LTD",19 TAMAN SERASI #03-23 BOTANIC GARDENS VIEW Singapore 257723,1.3087134,103.8190799,9768 4076,,
253,Loving Heart Multi-Service Centre,210 Jurong East St 21 #01-389 Singapore 600210,1.3388218,103.7386464,68974766,68975845,lhmsc@lovingheart.org.sg
254,Loving Heart Multi-Service Centre (Jurong),316 Jurong East Street 32 #01-279 Singapore 600316,1.3461111,103.7320391,65674166,65697957,lhmscj@lovingheartj.org
255,Lutheran Community Care Services Limited,3779 JALAN BUKIT MERAH #02-01 BUKIT MERAH COMMUNITY HUB Singapore 159462,1.2844073,103.8157049,64413906,64463906,admin@lccs.org.sg
256,Majlis Pusat Singapura,93 Toa Payoh Central #06-01 Toa Payoh Central Community Building Singapore 319194,1.334916,103.8503639,62514458,62514481,adminsupport@majlispusatsg.org
257,Make-A-Wish Foundation (Singapore) Limited,1 Coleman Street #04-18 The Adelphi Singapore 179803,1.2911845,103.8512167,63349474,63344750,info@makeawish.org.sg
258,MAMRE OAKS LIMITED,"490 EAST COAST ROAD SAINT PATRICKS SCHOOL, BROTHERS RESIDENCE Singapore 429058",1.308219,103.9170364,69787800,,admin@mamreoaks.sg
259,Man Fut Tong Nursing Home,20 Woodlands Street 82 Singapore 738507,1.4434732,103.7905526,31571151,63686303,mft@mft.org.sg
260,Man Fut Tong Welfare Society,141 Lorong Ah Soo #01-283 Singapore 530141,1.3531456,103.8840887,62888096,62888096,manfuttong@gmail.com
261,Marine Parade Leadership Foundation,1 ENGKU AMAN TURN #03-02 WISMA GEYLANG SERAI Singapore 408528,1.3164938,103.8965689,6432 1300,6432 1355,Chiang_Wei_Hong@pa.gov.sg
262,Marymount Centre,9 Lorong 8 Toa Payoh Good Shepherd Place Singapore 319253,1.3403772,103.8570182,62564440,62517763,ags_admin@marymountctr.org.sg
263,Mercy Relief Limited,160 LORONG 1 TOA PAYOH #01-1568 Singapore 310160,1.330896,103.845126,63326320,63339800,intouch@mercyrelief.org
264,Methodist Welfare Services,70 Barker Road #05-01 Singapore 309936,1.3187568,103.8340093,64784700,64784701,admin@mws.sg
265,Metropolitan Young Men's Christian Association Of Singapore,60 Stevens Road Singapore 257854,1.3164696,103.8266074,68398333,67372297,info@mymca.org.sg
266,Metta Welfare Association,32 Simei Street 1 Metta Building Singapore 529950,1.34658,103.956941,65804688,65804699,mwa@metta.org.sg
267,Migrant Workers' Assistance Fund,579 Serangoon Road Singapore 218352,1.3157399,103.858401,,,
268,MILK (Mainly I Love Kids) Fund,1 Lor 2 Toa Payoh #07-00 Braddell House Singapore 319637,1.3402155,103.847321,62224123,,info@milk.org.sg
269,Montfort Care,53 Marine Terrace #01-215 Singapore 440053,1.3051731,103.9163476,6446 0300,6446 0100,getinvolved@montfortcare.org.sg
270,MORAL HOME FOR THE AGED SICK LIMITED,No. 1 Jalan Bilal Singapore 468854,1.3218152,103.9542817,6442 2268,6443 6445,winnie@chkmps.org.sg
271,MORNING STAR COMMUNITY SERVICES LTD.,25 Lorong 33 Geylang #04-01 Pu Tian Building Singapore 387985,1.3152814,103.8876671,62851377,62852702,mscs@morningstar.org.sg
272,MOUNT ALVERNIA HOSPITAL,820 Thomson Road Mount Alvernia Hospital Singapore 574623,1.3419568,103.8380034,63476688,,enquiry@mtalvernia.sg
273,Movement for the Intellectually Disabled of Singapore (MINDS),800 Margaret Drive SIA-MINDS Employment Dev Centre Singapore 149310,1.2951625,103.8132109,64795655,64790706,minds@minds.org.sg
274,Muhammadiyah Welfare Home,58 Bedok North Street 3 Singapore 469624,1.3347458,103.9320729,6344 7551,6348 2661,mwh@muhammadiyah.org.sg
275,Muscular Dystrophy Association (Singapore),9 Bishan Place #06-04 Junction 8 (Office Tower) Singapore 579837,1.3506808,103.8487631,62596933,62596911,careers@mdas.org.sg
276,MUSICAL THEATRE LTD.,20 Shaw Road #05-05 Ching Shine Industrial Building Singapore 367956,1.3365545,103.8843015,86090625,,mtl.manager@gmail.com
277,Muslim Kidney Action Association (MKAC Association),122 Telok Kurau Road Singapore 423806,1.31452,103.9097473,64407390,64407386,info@mkac.sg
278,"Muslim Missionary Society, Singapore, The",31 Lorong 12 Geylang Singapore 399006,1.3104312,103.8788298,67431211,67450610,info@jamiyah.org.sg
279,MUSLIMIN TRUST FUND ASSOCIATION,5 Mattar Road Singapore 387713,1.3257796,103.8815498,67477556,67411609,adminmtfa@mtfa.org
280,My Community,46-3 COMMONWEALTH DRIVE #01-388 Singapore 140463,1.2996926,103.7980353,88295138,,
281,Nam Hong Welfare Service Society,111 Yishun Ring Road #01-375 Singapore 760111,1.4332366,103.8285461,62579192,67560637,namhongcares@gmail.com
282,Nanyang Technological University Welfare Services Club,NS3 50 Nanyang Avenue #01-03 Academic Complex North Singapore 639798,1.3473583,103.6810688,67905153,67918014,
283,National Arthritis Foundation,100 LORONG 23 GEYLANG #01-01 D'CENTENNIAL Singapore 388398,1.3177621,103.8812289,62279726,62700147,info@naf.org.sg
284,NATIONAL GALLERY SINGAPORE,1 St. Andrew's Road #01-01 National Gallery Singapore Singapore 178957,1.2902217,103.8515167,66909401,66909404,info@nationalgallery.sg
285,National Healthcare Group Fund,3 Fusionopolis Link #03-08 Nexus @One-North Singapore 138543,1.2987064,103.7898168,,,
286,"National Safety Council of Singapore, The",122 Telok Kurau Road Singapore 423806,1.31452,103.9097473,64407390,62237568,safety@nscs.org.sg
287,National University Of Singapore Students' Union,"31 Lower Kent Ridge Road, NUSSU Secretariat #05-01 Yusof Ishak House Singapore 119078",1.2985489,103.77496,66011345,67771874,ask@nussu.org.sg
288,NATIONAL VOLUNTEER AND PHILANTHROPY CENTRE,6 Eu Tong Sen Street #04-88 The Central Singapore 059817,1.2890252,103.8466098,65509595,62210625,jonathantan@nvpc.org.sg
289,Neighbour Ring Community Services,8 JOO SENG ROAD #01-08 JOO SENG GREEN Singapore 360008,1.335219,103.878805,64876301,,nrcs2003@gmail.com
290,"Netherlands Charity Association, The",c/o 22 Camden Park Singapore 299814,1.3298023,103.8164134,64671703,,finance@nca.org.sg
291,"New Charis Mission, The","11 Jalan Ubi, Block 1 #01-01 Kembangan-Chai Chee Comm Hub Singapore 409074",1.3173014,103.8997545,64833707,64833658,office@tncm.org.sg
292,New Hope Community Services,148 Yishun Street 11 #01-123 Singapore 760148,1.4319165,103.8323869,63059620,67553684,admin@newhopecs.org.sg
293,New Life Community Services,6 WOODLANDS SQUARE #03-01 WOODS SQUARE TOWER 2 Singapore 737737,1.4347621,103.7857558,68927191,68927181,email@newlife.org.sg
294,New Life Stories Limited,1 LORONG 2 TOA PAYOH #7-00 BRADDELL HOUSE Singapore 319637,1.3402155,103.847321,63867688,,hello@newlifestories.org.sg
295,New Redeemer's Fellowship Society,116 Changi Road #02-01 WIS@CHANGI Singapore 419718,1.3165957,103.9012094,63482610,,newredeemerfellowship@gmail.com
296,NTUC HEALTH CO-OPERATIVE LTD,55 Ubi Avenue 1 #08-01 Singapore 408935,1.3250554,103.8954529,65904300,65904389,joan.tay@ntuchealth.sg
297,NTUC-U Care Fund,1 Marina Boulevard #10-01 NTUC Centre Singapore 018989,1.2823043,103.8525645,62138000,63278855,csd@ntuc.org.sg
298,NUHS Fund Limited,"1E Kent Ridge Road, Development Ofc #13-00 NUHS Tower Block Singapore 119228",1.2922222,103.7836111,67723984,67750394,nuhsfund@nuhs.edu.sg
299,NuLife Care & Counselling Services Limited,153A SERANGOON NORTH AVENUE 1 #02-456 NIL Singapore 551153,1.3696622,103.8718926,63008706,,ccs@nulife.com.sg
300,Octava Foundation Limited,8 TEMASEK BOULEVARD #38-01 SUNTEC TOWER THREE Singapore 038988,1.2953148,103.8594994,63852021,,info@octavafoundation.com
301,Odyssey Dance Theatre Ltd,28 Aliwal Street #03-08 Aliwal Arts Centre Singapore 199918,1.3025906,103.8611415,,,
302,Oikos.Community@Sengkang Ltd,31 Anchorvale Road Sengkang Methodist Church Singapore 545056,1.3920841,103.886485,63860626,63856191,rachelsng@oikos.org.sg
303,O'Joy Care Services,5 Upper Boon Keng Road #02-10 Singapore 380005,1.3126741,103.8725969,67490190,67421909,admin@ojoy.org
304,O'Joy Limited,5 Upper Boon Keng Rd #02-10 Singapore 380005,1.3126741,103.8725969,67490190,67421909,admin@ojoy.org
305,One Hope Centre,8 New Industrial Road #04-04B LHK 3 Building Singapore 536200,1.3418575,103.8852895,62860152,,help@onehopecentre.org
306,OnePeople.sg,381 Toa Payoh Lorong 1 Singapore 319758,1.3403339,103.845221,62594116,62591141,enquiry@onepeople.sg
307,Operation Renewal (Singapore),14 Jalan Dinding Singapore 739831,1.4158275,103.7577457,62880708,62881358,admin@oprenewal.org.sg
308,Parkinson Society Singapore,191 Bishan Street 13 #01-415 Singapore 570191,1.3504111,103.8511785,63535338,63533085,info@parkinson.org.sg
309,Pasir Panjang Hill Community Services Centre,44 Teban Gardens Road #01-407 Singapore 600044,1.3208104,103.7415654,65665603,65666851,community@pphcsc.org
310,PAVE,211 Ang Mo Kio Ave 3 #01-1446 Singapore 560211,1.3692104,103.8415977,65550390,65525290,admin@pave.org.sg
311,Persatuan Pemudi Islam Singapura (PPIS),1 Eunos Crescent #01-2509 Singapore 400001,1.3208323,103.9024815,67440258,67481417,info@ppis.sg
312,Persatuan Persuratan Pemuda Pemudi Melayu (Malay Youth Literary Association),606 Bedok Reservoir Road #01-716 Singapore 470606,1.331668,103.91381,62426381,62420610,secretariat@4pm.org.sg
313,PERTAPIS Education and Welfare Centre,1 Joo Chiat Road #04-1001 Joo Chiat Complex Singapore 420001,1.3157026,103.8988695,67453969,67470845,enquiry@pertapis.org.sg
314,Philippine Bayanihan Society (Singapore),43 Pasir Panjang Road Bayanihan Centre Singapore 118503,1.2735245,103.7980832,64743700,,bayanihancentre@singnet.com.sg
315,PLAYEUM LTD,21 BEDOK NORTH STREET 1 #01-01 Common Ground Singapore 469659,1.3266718,103.9306418,62620750,62620751,share@playeum.com
316,Potter's Place Community Services Society,170 Upper Bukit Timah Road #09-04 Bukit Timah Shopping Centre Singapore 588179,1.3433626,103.7759097,64660293,64660313,admin@pottersplace.org.sg
317,Presbyterian Community Services,105 JALAN BUKIT MERAH #01-1912 TIONG BAHRU ORCHID Singapore 160105,1.2806741,103.8248474,63344445,63387153,info@pcs.org.sg
318,Prison Fellowship Singapore Limited,50 PLAYFAIR ROAD #03-01 NOEL BUILDING Singapore 367995,1.3341916,103.8868527,63842338,,admin@pfs.org.sg
319,PROJECT SMILE LIMITED,26 Norris Road Singapore 208268,1.3080317,103.8538168,93829176,,contact@sgprojectsmile.org
320,Promisedland Community Services,151 Bukit Batok St 11 #04-250 Singapore 650151,1.3487581,103.7442612,6566 9570,6560 3256,andygenj@hotmail.com
321,PROVIDENCE CARE LIMITED,372 JURONG EAST  STREET 32 #01-400 JURONG EAST  COURT Singapore 600372,1.3486548,103.7318185,62581590,,ngmeiling@pcl.org.sg
322,PSALT CARE LIMITED,10 Sinaran Drive #09-22 SQUARE 2 Singapore 307506,1.3208322,103.8441474,63976994,63977301,
323,Pu Ti Lian She,35 Geylang Lorong 14 Singapore 398944,1.3110231,103.8792839,68446803,,
324,Public Free Clinic Society,10 Lorong 9 Geylang Singapore 388758,1.3127444,103.8765304,67489637,67413301,chong_pf@pfcs.org.sg
325,QUANTEDGE FOUNDATION (SINGAPORE) LTD.,20 McCallum Street #15-00 Tokio Marine Centre Singapore 069046,1.2794439,103.847955,65112388,,enquiries@quantedge.org
326,Queenstown Multi-Service Centre,150A Mei Chin Road #01-01 Singapore 140150,1.2954264,103.8036662,64736511,64738915,enquiry@qmsc.org.sg
327,"Rainbow Centre, Singapore",501 Margaret Drive Singapore 149306,1.2974003,103.8090378,64752072,64739739,contactus@rainbowcentre.org.sg
328,"Ramakrishna Mission, The",179 Bartley Road Singapore 539784,1.3443848,103.8802122,62887324,64151425,office@ramakrishna.org.sg
329,REACH Community Services Society,187 Bishan Street 13 #01-475 Singapore 570187,1.3495227,103.851562,62522566,62522445,contact@reach.org.sg
330,Realm of Tranquility,547 Woodlands Drive 16 #01-177 Singapore 730547,1.430215,103.793055,64693843,,email@realmoftranquility.com
331,Red Swastika Charity Foundation,76 Keng Lee Road The World Red Swastika Society Singapore 219251,1.31306,103.84702,62995907,62994714,redswastika@singnet.com
332,Ren Ci Hospital,71 Irrawaddy Road Singapore 329562,1.322866,103.845971,63580777,63580900,renci@renci.org.sg
333,RESILIENCE COLLECTIVE LTD.,176 ORCHARD ROAD #05-05 THE CENTREPOINT Singapore 238843,1.3015383,103.8401372,69322786,,contactus@resilience.org.sg
334,Restroom Association (Singapore),2 Balestier Road #03-679 Singapore 320002,1.3258546,103.8428618,62979824,62979825,info@toilet.org.sg
335,Riding For The Disabled Association Of Singapore,5 Jalan Mashhor RDA Centre Singapore 299174,1.3348038,103.83489,62500176,63542396,mail@rdasingapore.org.sg
336,RiverLife Community Services Limited,6 Loyang Besar Close Singapore 509026,1.3784838,103.957772,63125963,63125879,office@rcs.org.sg
337,Ronald McDonald House Charities Singapore,"5 Lower Kent Ridge Rd, Main Bldg NUH, 4th Level Singapore 119074",1.2941031,103.7834975,67781934,67745358,contact@rmhc.org.sg
338,Rotary Club Of Singapore,1A International Business Park #12-02 Singapore 609933,1.3280686,103.748118,67372504,,rtyinfo@rotary.org.sg
339,RSVP Singapore The Organisation of Senior Volunteers,9 Bishan Place #08-02 Junction 8 (Office Tower) Singapore 579837,1.3506808,103.8487631,6259 0802,6259 0805,general@rsvp.org.sg
340,SAGE Counselling Centre,1 Jurong West Central 2 #06-04 Jurong Point Shopping Centre Singapore 648886,1.3397443,103.7067297,63541191,63541905,recruit@sagecc.org.sg
341,Salem Welfare Services Ltd,1-7 Thomson Hills Drive Singapore 574746,1.3788525,103.8319861,67551770,,salemwell@singnet.com.sg
342,"Salvation Army, The",20 Bishan St 22  The Salvation Army Singapore 579768,1.3609698,103.8425781,65550188,,public.relations@SMM.salvationarmy.org
343,Samaritans Of Singapore,10 Cantonment Close #01-01 (HDB Multi-storey carpark) Singapore 080010,1.2746539,103.8392779,62212122,62207758,samlink@samaritans.org.sg
344,SASCO SENIOR CITIZENS' HOME,"30 Hong San Terrace Evergreen Place, Home @ Hong San Singapore 688246",1.37814,103.7456289,62735183,62727367,alicelau@sasco.org.sg
345,SATA CommHealth,351 Chai Chee Street SATA CommHealth Building Singapore 468982,1.3279741,103.9211413,62446668,62243023,enquiries@sata.com.sg
346,Sathya Sai Social Service (Singapore),2 Buangkok Green Tembusu Home@Pelangi Village Singapore 539749,1.382104,103.887857,64898534,63157843,exedir@4s.org.sg
347,SELF HELP GROUPS STUDENT CARE LIMITED,65 Tanjong Katong Road Block B #03-01 Singapore 436957,1.313525,103.8946983,63949710,,info@shgstudentcare.com.sg
348,Sembawang Family Service Centre,326 Sembawang Crescent #01-52 Singapore 750326,1.4448619,103.8191129,6754 7050,6754 0112,admin@sfsc.org.sg
349,Sembawang Tamils' Association,660 Yishun Avenue 4 #01-305 Singapore 760660,1.4219282,103.8403296,67543621,67544621,
350,Serangoon Moral Family Service Centre,238 Serangoon Ave 2 #01-47 Singapore 550238,1.3536111,103.8688889,62847123,62845221,contact@smfsc.org.sg
351,SG ENABLE LTD.,20 Lengkok Bahru #02-06 Enabling Village Singapore 159053,1.287243,103.814824,65056464,62262366,contactus@sgenable.sg
352,SG Serve Ltd,Block 609 Bedok Reservoir Road #01-690 Singapore 470609,1.3318209,103.9124442,96626462,,joyful@singnet.com.sg
353,Shan You,5 UPPER BOON KENG ROAD #02-15 KALLANG HEIGHTS Singapore 380005,1.3130886,103.8728796,67419293,67419352,info@shanyou.org.sg
354,Shared Services for Charities Limited,15 Lorong 29 Geylang #08-01 PTH Building Singapore 388069,1.3147598,103.8855925,63392811,63390659,contact@sscharities.com
355,SHINE CHILDREN AND YOUTH SERVICES,463 Hougang Ave 10 #01-964 Singapore 530463,1.372381,103.894856,62869905,62866230,scys_hq@shine.org.sg
356,Sian Chay Medical Institution,610 Geylang Road Singapore 389549,1.3141793,103.8884307,67441891,67443082,info@sianchay.org.sg
357,Sikh Sewaks Singapore,2 Towner Road Central Sikh Temple Singapore 327804,1.3189534,103.8602241,82883574,,
358,Sikh Welfare Council,POBox 1468 Towner Road Singapore 913237,1.3200278,103.8585331,6562999234,62941582,info@siwec.org
359,Silver Ribbon (Singapore),208 SERANGOON CENTRAL #01-238 H.O.L.A. Hang On. Lifes Awesome Singapore 550208,1.3540805,103.8736672,63861928,,info@silverribbonsingapore.com
360,Singapore After-Care Association,81 Dunlop Street Singapore 209408,1.3051954,103.8531915,62942350,62950095,enquiries@saca.org.sg
361,"Singapore American Community Action Council, The",27A Jubilee Road c/o International Community School (Singapore) Singapore 128575,1.3068214,103.7660743,67339249,,carol@sacac.com
362,Singapore Anglican Community Services,10 Simei St 3 Singapore 529897,1.34202,103.9491732,65861064,65861096,admin@sacs.org.sg
363,Singapore Anti-Narcotics Association,2 Sengkang Square #05-01 Sengkang Community Hub Singapore 545025,1.3927635,103.8940278,67321122,67324564,sana@sana.org.sg
364,Singapore Art Museum,61 Stamford Road #02-02 Stamford Court Singapore 178892,1.2944822,103.850122,66979771,63347919,partnership@singaporeartmuseum.sg
365,"Singapore Association for Continuing Education, The",111 North Bridge Road #07-05/06 Peninsula Plaza Singapore 179098,1.2923407,103.8508826,65828220,65828221,enquiry@sace.org.sg
366,Singapore Association For Counselling,190 CLEMENCEAU AVENUE #06-01 SINGAPORE SHOPPING CENTRE Singapore 239924,1.2980833,103.8440979,67088292,,admin@sacsingapore.org
367,"Singapore Association for Mental Health, The",139 POTONG PASIR AVENUE 3 #01-136 NIL Singapore 350139,1.3331442,103.8665303,62553222,62526834,samhhq@singnet.com.sg
368,"Singapore Association For The Deaf, The",227 Mountbatten Road Singapore 397998,1.3079002,103.8798634,63448274,63457706,info@sadeaf.org.sg
369,Singapore Association Of Occupational Therapists,Orchard Road P.O. Box 0475 Singapore 912316,1.3048205,103.8321984,-,,saot@live.com
370,Singapore Association Of Social Workers,324 Clementi Ave 5 #01-209 Singapore 120324,1.3150911,103.7660743,67787922,67780609,admin@sasw.org.sg
371,Singapore Association Of The Visually Handicapped,47 Toa Payoh Rise Singapore 298104,1.3381868,103.8398541,62514331,62537191,enquiries@savh.org.sg
372,"Singapore Buddhist Federation, The",59 Lorong 24A Geylang Singapore 398583,1.3115185,103.8841595,67444635,67473618,
373,Singapore Buddhist Free Clinic,48 Lor 23 Geylang Singapore Buddhist Free Clinic Singapore 388376,1.3155333,103.881536,67487292,67487239,admin@sbfc.org.sg
374,Singapore Buddhist Lodge Welfare Foundation,17-19 Kim Yam Road Singapore 239329,1.2944359,103.838849,67372630,67370877,weifare.fund@sbl.org.sg
375,Singapore Buddhist Welfare Services,105 Punggol Road Singapore 546636,1.3797458,103.8966595,64898161,64898131,HR@sbws.org.sg
376,Singapore Business Federation Foundation Limited,160 ROBINSON ROAD #06-01 SBF CENTER Singapore 068914,1.2781678,103.8478429,68276806,68276807,monica.tung@sbffoundation.org.sg
377,Singapore Cancer Society,15 Enggor Street #04-01 04 Realty Centre Singapore 079716,1.2740511,103.8441975,1800-727-3333,62219575,enquiry@singaporecancersociety.org.sg
378,"Singapore Centre for Social Enterprise, raiSE Ltd",79 AYER RAJAH CRESCENT #02-01/02 JTC LAUNCHPAD @ ONE-NORTH Singapore 139955,1.2980413,103.7873935,64600800,,enquiries@raise.sg
379,Singapore Children's Society,210 MIDDLE ROAD #05-03 SINGAPORE POOLS BUILDING Singapore 188994,1.3011984,103.8515335,6273 2010,,info@childrensociety.org.sg
380,Singapore Christian Home,20 Sembawang Crescent Singapore 757092,1.4447622,103.8174374,68315161,68315160,enquiry@schome.org.sg
381,Singapore Chung Hwa Medical Institution,640 Toa Payoh Lor 4 Chung Hwa Free Clinic Singapore 319522,1.3323051,103.851378,62513304,62540037,chunghwa@singaporetcm.com
382,"Singapore Committee of the World Organisation for Early Childhood Education (OMEP), The",11 Francis Thomas Drive c/o Ascension Kindergarten Singapore 359338,1.3300829,103.866549,63821110,,admin@omep-sgp.org
383,Singapore Council Of Women's Organisations,96 Waterloo Street SCWO Centre Singapore 187967,1.2994509,103.8517657,68370611,68370081,scwo@scwo.org.sg
384,Singapore Dental Health Foundation,2985 Jalan Bukit Merah #02-2D SMF Building Singapore 159457,1.2819609,103.8220052,62239343,62247967,info@dentalhealth.org.sg
385,Singapore Disability Sports Council,3 Stadium Drive #01-34 Singapore 397630,1.3031619,103.8751423,63423501,63420961,sdsc@sdsc.org.sg
386,Singapore Gujarati Society,13 Cuff Road Singapore 209724,1.3070839,103.852897,63960900,63960901,
387,Singapore Heart Foundation,9 Bishan Place #07-01 Junction 8 (Office Tower) Singapore 579837,1.3505255,103.8485901,63549340,62585240,info@heart.org.sg
388,Singapore Hospice Council,1 Lorong 2 Toa Payoh #07-00 Braddell House Singapore 319637,1.3402155,103.847321,65382231,,secretariat@singaporehospice.org.sg
389,Singapore Indian Development Association (SINDA),1 Beatty Road Singapore 209943,1.3140061,103.8588283,18002954554,63924300,queries@sinda.org.sg
390,Singapore Indian Education Trust,1 Beatty Road #04-402 SINDA Singapore 209943,1.3140061,103.8588283,62962855,62978596,sieto@singnet.com.sg
391,Singapore International Foundation,"60A Tower 1, The Atrium@Orchard #04-01 International Involvement Hub Singapore 238890",1.2994621,103.8451184,68378700,68378710,contactus@sif.org.sg
392,"Singapore Kadayanallur Muslim League, The",137 Cecil Street #10-07 Hengda Building Singapore 069537,1.2798054,103.8486112,62744161,64723440,info@skml.sg
393,Singapore Kindness Movement,61 STAMFORD ROAD #04-12 STAMFORD COURT Singapore 178892,1.2944822,103.850122,67619100,67619129,SECRETARIAT@KINDNESS.SG
394,Singapore Leprosy Relief Association,80 Buangkok View Buangkok Green Medical Park Singapore 534191,1.3824524,103.8855753,64813270,64830766,contact@silra.org.sg
395,"Singapore Life Saving Society, The",21 Geylang Bahru Lane Kallang Basin Swimming Complex Singapore 339627,1.322795,103.8724441,62993660,,accounts@slss.org.sg
396,SINGAPORE NATIONAL PARALYMPIC COUNCIL LTD.,3 Stadium Drive #01-34 Singapore 397630,1.3031619,103.8751423,63461158,,admin@snpc.org.sg
397,Singapore National Stroke Association,1 Lorong 2 ToaPayoh #05-01 BRADDELL HOUSE Singapore 319637,1.3402155,103.847321,62229514,,contact@snsa.org.sg
398,Singapore Nurses Association,77 Maude Road SNA House Singapore 208353,1.3083352,103.8578928,63920770,63927877,ed@sna.org.sg
399,Singapore Physiotherapy Association,11 Jln Tan Tock Seng Singapore 308433,1.3210806,103.8456848,92781211,,secretary@physiotherapy.org.sg
400,Singapore Planned Families Association,3A Holland Close #01-55 Singapore 272003,1.3083109,103.7968102,67758981,67758296,admin@spfa.org.sg
401,Singapore Psychological Society,8 Eu Tong Sen Street #18-81 The Central Singapore 059818,1.2891137,103.8466671,65333256,62231312,secretariat@singaporepsychologicalsociety.org
402,Singapore Red Cross Society,15 Penang Lane Red Cross House Singapore 238486,1.297374,103.844498,66640522,63374360,enquiry@redcross.sg
403,"SINGAPORE SCOUT ASSOCIATION, THE",1 Bishan St 12 Singapore 579808,1.3476262,103.8501205,62592858,62592118,hq@scout.org.sg
404,Singapore Tao Yuan also named The World Red Swastika Society (Singapore Administration Centre),76 Keng Lee Road Singapore 219251,1.3130251,103.8470327,62992033,62994714,worldredswastika@gmail.com
405,"Singapore Tenkasi Muslim Welfare Society, The (Singapore Tenkasi Muslim Nalanapivirithi Sangam, The)",334 Kreta Ayer Road #02-02 Singapore 080334,1.2815328,103.8422758,63271296,-,info@tenkasi.org
406,Singapore Thong Chai Medical Institution,50 Chin Swee Road #01-01 Thong Chai Building Singapore 169874,1.2877005,103.8402445,67336905,67333552,stcmi@singnet.com.sg
407,Singapore Women's Association (Persatuan Wanita Singapura),409 Serangoon Central #01-303 Singapore 550409,1.3477063,103.8742006,62868702,62889172,contactus@singaporewomenassociation.org
408,SINGHEALTH FUND,31 THIRD HOSPITAL AVENUE SINGAPORE GENERAL HOSPITAL (SGH MUSEUM) Singapore 168753,1.2804242,103.8348123,63778718,,sabrina.chin@singhealth.com.sg
409,SMA Charity Fund,2985 JALAN BUKIT MERAH #02-2C SMF BUILDING Singapore 159457,1.2819609,103.8220052,62231264,62247827,smacharity@sma.org.sg
410,SOCIAL HEALTH GROWTH LTD.,200 Jalan Sultan #03-17 Textile Centre Singapore 199018,1.3033969,103.8617555,63382892,63382892,wgc.alson@gmail.com
411,Social Innovation Park Limited,50 Punggol East Singapore 828826,1.3945186,103.9167554,63126200,63126280,info@socialinnovationpark.org
412,Society Against Family Violence,"1 Tanglin Road #4-02 ORCHARD RENDEZVOUS HOTEL, SINGAPORE Singapore 247905",1.3065228,103.827668,62353341,62357176,bongbenny@gmail.com
413,Society for Audiology Professionals (Singapore),171 Lorong 1 Toa Payoh #09-1150 Singapore 310171,1.3307572,103.8426885,96561587,,audiologysingapore@gmail.com
414,Society For Continence (Singapore),16 KALLANG PLACE #07-03 Singapore 339156,1.3165889,103.8665885,98890084,66598946,contact@sfcs.org.sg
415,Society For The Aged Sick,130 Hougang Ave 1 Singapore 538900,1.3497887,103.887666,69226222,62893227,enquiry@societyagedsick.org.sg
416,"Society For The Prevention Of Cruelty To Animals, Singapore",50 Sungei Tengah Rd Singapore 699012,1.3804633,103.7321523,62875355,62865997,ed@spca.org.sg
417,Society for the Promotion of Attention Deficit Hyperactivity Disorder Research and Knowledge,1008 Toa Payoh North #03-08 Singapore 318996,1.3430282,103.8460463,62924456,62924414,Spark_Singapore@yahoogroups.com
418,Society for WINGS,9 Bishan Place #05-01 Junction 8 Office Tower Singapore 579837,1.3506808,103.8487631,62501012,62501108,info@wings.sg
419,Society Of Sheng Hong Welfare Services,237 Hougang Street 21 #01-406 Singapore 530237,1.3569949,103.888708,62895022,62898242,fsc@shenghong.org.sg
420,Society of St. Vincent De Paul (National Council of Singapore),7A LORONG 8 TOA PAYOH #04-01 AGAPE VILLAGE Singapore 319264,1.3400854,103.8570262,68017480,,melanie.tan@ssvpsingapore.org
421,Soroptimist International Of Singapore,96 Waterloo Street #02-05 SCWO Centre Singapore 187967,1.2994509,103.8517657,91511290,63448474,
422,South Central Community Family Service Centre Limited,5 Delta Avenue #01-09 Singapore 160005,1.292287,103.827649,64619200,62721923,hello@sccfsc.org.sg
423,SPD,2 Peng Nguan Street SPD Ability Centre Singapore 168955,1.2820794,103.8312078,65790700,63237008,information@spd.org.sg
424,Special Needs Trust Company Limited,298 Tiong Bahru Road #10-01 Central Plaza Singapore 168730,1.2864244,103.827346,65936499,62707936,admin@sntc.org.sg
425,"SPECIAL OLYMPICS ASIA PACIFIC, LTD.",354 Tanglin Road #01-11/12 Tanglin International Centre Singapore 247672,1.2952215,103.8144063,64737850,64737851,dkhoo@specialolympics.org
426,"Special Olympics, Singapore",2 St George's Road #01-65 Singapore 322002,1.323191,103.860449,62933182,62938497,admin@specialolympics.org.sg
427,Speech And Language Therapy Singapore (SALTS),300 Tampines Avenue 5 #09-02 Singapore 529653,1.3522658,103.9418353,66795846,66795601,enquiry@salts.org.sg
428,Sree Narayana Mission (Singapore),12 Yishun Ave 5 Sree Narayana Mission Building Singapore 768992,1.4300181,103.831136,67521785,67529548,snm_hr@snm.org.sg
429,Sri Krishna Mandir Welfare Society,9 Lorong 29 Geylang #03-02 Singapore 388065,1.3146372,103.8856274,62502280,62507716,skmwelsoc@gmail.com
430,St Andrew's Cathedral Home For The Aged,341 Clementi Ave 5 #01-148 Singapore 120341,1.3190999,103.7690618,6777 0665,6339 1197,sachfa@cathedral.org.sg
431,St Andrew's Mission Hospital,8 Simei Street 3 Singapore 529895,1.3416611,103.9490831,65861064,65861096,samh@samh.org.sg
432,St Gabriel's Foundation,624 UPPER BUKIT TIMAH ROAD BOYS TOWN SINGAPORE Singapore 678212,1.369728,103.7674638,67695711,,enquiry@stgabrielsfoundation.sg
433,St Luke's ElderCare Ltd,50 Kallang Pudding Road #07-02 Ama Building Singapore 349326,1.3284458,103.8786661,65670708,65673701,hq@slec.org.sg
434,St Luke's Hospital,2 Bukit Batok St 11 Singapore 659674,1.349345,103.742008,65632281,65618205,general@slh.org.sg
435,St. Hilda's Community Services Centre,10 Jalan Batu #01-06 Singapore 431010,1.3020705,103.882909,63450054,,info@sthildascsc.org.sg
436,St. John Singapore,420 Beach Road Singapore 199582,1.3017369,103.8631631,62980300,62965797,
437,St. John's Home for Elderly Persons,69 Wan Tho Avenue Sennett Estate Singapore 347601,1.3331113,103.8737941,62848221,62854885,stjnhome@stjohneldershome.org.sg
438,Stroke Support Station Ltd,20 Lengkok Bahru #01-04 Enabling Village - Playground Singapore 159053,1.2866786,103.8142089,64733500,,info@S3.org.sg
439,Student Volunteer Corps (Singapore) (SVC),30 Telok Blangah Rise #07-304 Singapore 090030,1.2730052,103.8203758,91801463,,enquirysvc@gmail.com
440,SUN-DAC,600 UPPER THOMSON ROAD #01-21 Blk C UPPER THOMSON COMMUNITY HUB Singapore 574421,1.3753035,103.8291015,62650428,62652156,sundachq@sundac.org
441,Sunlove Abode For Intellectually-Infirmed Ltd,70 Buangkok View Singapore 534190,1.3801506,103.885176,63873548,63863716,sunlovehq@sunlove.org.sg
442,Sunshine Welfare Action Mission (SWAMI),5 Sembawang Walk Singapore 757717,1.440016,103.8240579,62576117,67548443,constance@swami.org.sg
443,Tabung Amal Aidilfitri Trust Fund,845 Geylang Road #04-16 Tanjong Katong Complex Singapore 400845,1.3159363,103.8945531,67488177,,info@taa.org.sg
444,Tai Pei Old People's Home,10 Jalan Ampas Singapore 329510,1.3269672,103.8516516,62552188,62552401,tphome@singnet.com.sg
445,TALENTTRUST LIMITED,50 RAFFLES PLACE #37-01 Singapore Land Tower Singapore 048623,1.2847487,103.8519923,86617241,,tess@talenttrustsingapore.org
446,Taman Bacaan Pemuda Pemudi Melayu Singapura (Singapore Malay Youth Library Association),672 Jalan Damai #01-25 Singapore 410672,1.3320621,103.9089161,,64495336,
447,Tasek Jurong Limited,1 YUNG SHENG ROAD #03-06 Taman Jurong Community Club Singapore 618495,1.3354356,103.721875,62662826,,info@tasekjurong.org
448,Teen Challenge (Singapore),735 Old Choa Chu Kang Road Singapore 699798,1.3723043,103.7013607,67937933,67937457,info@teenchallenge.org.sg
449,"Tent, The",1034 Upper Serangoon Road Singapore 534797,1.3632702,103.8887083,62837695,62843988,enquiry@thetent.org.sg
450,The Community Foundation of Singapore,6 Eu Tong Sen Street #04-88 The Central Singapore 059817,1.2890252,103.8466098,65509529,62210625,Contactus@cf.org.sg
451,The Community Justice Centre Limited,"1 Havelock Square, Level 1 State Courts Complex Singapore 059724",1.2863639,103.8432753,65574100,,help@cyc.org.sg
452,THE FOOD BANK SINGAPORE LTD.,218 PANDAN LOOP #01-01 XPACE Singapore 128408,1.3115725,103.7491836,98554805,,enquiries@foodbank.sg
453,The Hiding Place (Christian Home Mission) Ltd,50 Jalan Lekar Singapore 698945,1.3828032,103.7238937,64835348,,admin@hidplace.com.sg
454,The Migrant Fund,7A Lorong 8 Toa Payoh #04-01 Agape Village Singapore 319264,1.3400854,103.8570262,68017440,68017404,acmi@catholic.org.sg
455,The Mission to Seafarers Singapore,52 Telok Blangah Road #01-05 Telok Blangah House Singapore 098829,1.2661288,103.8233804,67372880,,susankoh@mtss.org.sg
456,The National Kidney Foundation,81 Kim Keat Road Singapore 328836,1.3266604,103.8545526,1800-KIDNEYS (5436397),6299 3164,contact_us@nkfs.org
457,The Operation Hope Foundation Limited,352 Tanglin Road #02-04/05 Tanglin International Center Singapore 247671,1.2952703,103.8148516,62543886,,admin@ohf.org.sg
458,THE RAY OF HOPE INITIATIVE LIMITED,8 TEMASEK BOULEVARD #18-03 SUNTEC TOWER THREE Singapore 038988,1.2953148,103.8594994,69310055,,info@rayofhope.sg
459,The Red Pencil (Singapore),30 Merchant Road #04-17 Riverside Point Singapore 058282,1.2889419,103.8446997,62212217,62212281,welcome@redpencil.org
460,The Silver Lining Community Services Ltd,11 Playfair Road Singapore 367986,1.3339211,103.8865952,6749 0400,6396 0345,kelvin@silverlining.com.sg
461,The Singapore Cheshire Home,159 Serangoon Garden Way Singapore 556056,1.3660627,103.8612111,62840966,62842782,enquiries@cheshirehome.org.sg
462,The Straits Times School Pocket Money Fund,1000 Toa Payoh North News Centre Singapore 318994,1.3430597,103.848618,63192121,63198270,emailus@spmf.org.sg
463,THE TENG ENSEMBLE LTD.,1 Straits Boulevard #11-03E Singapore Chinese Cultural Centre Singapore 018906,1.2758712,103.8495885,90266032,,admin@thetengcompany.com
464,The Wan Boo Sow Charity Fund Limited,45 Greenridge Crescent Singapore 598933,1.3335216,103.7664854,97924902,,wanplxu@yahoo.com
465,Thong Chai Institute of Medical Research,50 Chin Swee Road #01-02 Thong Chai Building Singapore 169874,1.2877005,103.8402445,6738 9569,6738 9569,tcimr@stcmi.org.sg
466,Thong Kheng Welfare Services Society,14 Lorong 29 Geylang Road Singapore 388068,1.3147819,103.8861757,67428036,68468875,tkcic@singnet.com.sg
467,Thye Hua Kwan Moral Charities Limited,1 North Bridge Road #03-33 High Street Centre Singapore 179094,1.2900089,103.8494332,63371201,63335141,thkmc-hq@thkmc.org.sg
468,THYE HUA KWAN NURSING HOME LIMITED,48 HOUGANG AVENUE 8 #01-01 THK NURSING HOME @ HOUGANG Singapore 538793,1.3741694,103.8879878,68129840,68129869,enquiry@thknh.org.sg
469,TOUCH Community Services Limited,162 Bukit Merah Central #05-3545 Singapore 150162,1.2838751,103.8174297,63770122,63770121,tcs@touch.org.sg
470,TOUCH Family Services Limited,162 Bukit Merah Central #05-3545 Singapore 150162,1.2838751,103.8174297,63770122,63770121,tcs@touch.org.sg
471,TRANS Family Services,411 Bedok North Ave 2 #01-106 Singapore 460411,1.3283459,103.931665,64490762,64498135,transbd@trans.org.sg
472,Transient Workers Count Too (TWC2),5001 Beach Road #09-86 Golden Mile Complex Singapore 199588,1.3027902,103.8653797,62477001,63960759,info@twc2.org.sg
473,Trybe Limited,479 Tampines Street 44 #01-241 Singapore 520479,1.3615065,103.9535418,67841481,67848523,governance@trybe.org
474,Tsao Foundation,298 Tiong Bahru Road #15-01 Central Plaza Singapore 168730,1.2864244,103.827346,65939500,65939505,hr@tsaofoundation.org
475,Tung Ling Community Services,145 Marine Parade Road Singapore 449274,1.3044981,103.9063786,67040110,63457651,accounts@cos.org.sg
476,"Turning Point, The",341 Jamaica Road The Turning Point Singapore 757615,1.461668,103.8274528,62578364,62578317,turningp@singnet.com.sg
477,United Indian Muslim Association,714 CLEMENTI WEST STREET 2 #01-139 Singapore 120714,1.3041378,103.7618194,67473135,67751454,haja.mdeen@gmail.com
478,United Women Singapore,352 TANGLIN ROAD #01-09 TANGLIN INTERNATIONAL CENTRE Singapore 247671,1.2951646,103.8131945,62223239,,contact@uws.org.sg
479,United World College of South East Asia,1207 Dover Road United World College Singapore 139654,1.3025302,103.7771779,64199306,67753424,uwcseadover@uwcsea.edu.sg
480,Very Special Arts Singapore Ltd,133 Bedok North Avenue 3 #01-138 Singapore 460133,1.3275177,103.9357439,64486275,64416403,general@vsa.org.sg
481,Vipassana International Centre (Singapore),469 MACPHERSON ROAD #03-03 Gnoh Hock Realty Building Singapore 368186,1.332755,103.8840664,90119432,,info@sg.dhamma.org
482,Viriya Community Services,142 Potong Pasir Ave 3 #01-224 Singapore 350142,1.3333312,103.8671429,62858033,62858062,contact@viriya.org.sg
483,Viva Foundation for Children with Cancer,"8 Sinaran Drive, VIVA-CCF Hub #03-01 Novena Specialist Center Singapore 307470",1.3200257,103.8447228,6694 3370,6694 3372,enquiry@viva.sg
484,Wan Min Community Services,108 Potong Pasir Ave 1 #01-488 Singapore 350108,1.3350245,103.8678461,62889674,62889674,wmcs.pec@hotmail.com
485,WE CARE Community Services Limited,11 Jalan Ubi Block 5 #01-41 Kembangan-Chai Chee Comm Hub Singapore 409074,1.3171718,103.8999315,31658017,65475458,veron@wecare.org.sg
486,Wicare Support Group,9 Bishan Place #08-01 Junction 8 Office Tower Singapore 579837,1.3506808,103.8487631,63542475,63541941,contactus@wicare.org.sg
487,Willing Hearts,6 11 Jalan Ubi #01-51 Chai Chee Community Hub Singapore 409074,1.3171718,103.8999315,67430725,,willingheartsingapore@gmail.com
488,Woodlands Social Centre,830 WOODLANDS STREET 83 #01-33 NIL Singapore 730830,1.439341,103.790799,63653040,63631020,info@wsc.org.sg
489,World Toilet Organization Limited,26 Ubi Road 4 #02-01 SDG Center Singapore 408613,1.3310762,103.89901,63528921,,online@worldtoilet.org
490,Xin Yuan Community Care,1999 Lorong 8 Toa Payoh #01-02 Toa Payoh South Community Club Singapore 319258,1.33495,103.85944,62532161,62596676,xinyuancommunitycare@gmail.com
491,XiSer CareServe,10 BUANGKOK VIEW #5-L6 BUANGKOK GREEN MEDICAL PARK (BLOCK 2) Singapore 539747,1.3824524,103.8855753,63874728,63873370,admin@careserve.org.sg
492,YAYASAN MENDAKI,51 Kee Sun Avenue Yayasan Mendaki Singapore 457056,1.3114008,103.9289103,62455555,,Mendaki@mendaki.org.sg
493,YELLOW RIBBON SINGAPORE,980 Upper Changi Road North #02-19 Block B Singapore 507708,1.3542677,103.9689218,6214 2804,6742 0078,Lisa_Tan@yellowribbon.gov.sg
494,Yong-en Care Centre,335A Smith Street #03-57 Chinatown Complex Singapore 051335,1.2827449,103.8432149,62251002,62255218,mail@yong-en.org.sg
495,Young Men's Christian Association Of Singapore,1 Orchard Road YMCA of Singapore Singapore 238824,1.2975363,103.8478381,65862251,63368003,members@ymca.org.sg
496,Young Women's Christian Association Of Singapore,254 Outram Road Singapore 169051,1.285734,103.835165,62231227,62273650,admin@ywca.org.sg
497,Youth Guidance Outreach Services,10 Lorong 27A Geylang #03-01 Emmanuel House Singapore 388107,1.3146804,103.8849007,63688392,63686642,admin@ygos.org.sg
498,Zion Home for the Aged,419 Bedok North St 1 #01-200 Singapore 460419,1.326903,103.9281301,64437986,64437986,tgseng@zionhomeaged.org
499,Zonta Club Of Singapore,96 Waterloo Street c/o SCWO Singapore 187967,1.2994509,103.8517657,96371872,,